CCSDS_OMM_VERS = 2.0
CREATION_DATE  = 
ORIGINATOR     = 

OBJECT_NAME    = CYGNUS NG-23
OBJECT_ID      = 2025-208A
CENTER_NAME    = EARTH
REF_FRAME      = TEME
TIME_SYSTEM    = UTC
MEAN_ELEMENT_THEORY = SGP/SGP4

EPOCH          = 2025-12-24T17:30:08.449344
MEAN_MOTION    = 15.49788781
ECCENTRICITY   = .00031932
INCLINATION    = 51.6317
RA_OF_ASC_NODE = 83.1022
ARG_OF_PERICENTER = 296.2044
MEAN_ANOMALY   = 63.8616

EPHEMERIS_TYPE = 0
CLASSIFICATION_TYPE = U
NORAD_CAT_ID   = 65616
ELEMENT_SET_NO = 999
REV_AT_EPOCH   = 22
BSTAR          = .24880559E-3
MEAN_MOTION_DOT = .13665E-3
MEAN_MOTION_DDOT = 0

CCSDS_OMM_VERS = 2.0
CREATION_DATE  = 
ORIGINATOR     = 

OBJECT_NAME    = DRAGONFLY
OBJECT_ID      = 1998-067XH
CENTER_NAME    = EARTH
REF_FRAME      = TEME
TIME_SYSTEM    = UTC
MEAN_ELEMENT_THEORY = SGP/SGP4

EPOCH          = 2025-12-24T22:17:24.635904
MEAN_MOTION    = 15.76149650
ECCENTRICITY   = .0008056
INCLINATION    = 51.6251
RA_OF_ASC_NODE = 73.1569
ARG_OF_PERICENTER = 349.7528
MEAN_ANOMALY   = 10.3306

EPHEMERIS_TYPE = 0
CLASSIFICATION_TYPE = U
NORAD_CAT_ID   = 65729
ELEMENT_SET_NO = 999
REV_AT_EPOCH   = 1508
BSTAR          = .12604E-2
MEAN_MOTION_DOT = .206057E-2
MEAN_MOTION_DDOT = 0

CCSDS_OMM_VERS = 2.0
CREATION_DATE  = 
ORIGINATOR     = 

OBJECT_NAME    = 1998-067XK
OBJECT_ID      = 1998-067XK
CENTER_NAME    = EARTH
REF_FRAME      = TEME
TIME_SYSTEM    = UTC
MEAN_ELEMENT_THEORY = SGP/SGP4

EPOCH          = 2025-12-24T11:16:20.028000
MEAN_MOTION    = 15.67978094
ECCENTRICITY   = .00049802
INCLINATION    = 51.6288
RA_OF_ASC_NODE = 77.6233
ARG_OF_PERICENTER = 319.0572
MEAN_ANOMALY   = 41.0050

EPHEMERIS_TYPE = 0
CLASSIFICATION_TYPE = U
NORAD_CAT_ID   = 65731
ELEMENT_SET_NO = 999
REV_AT_EPOCH   = 1498
BSTAR          = .93626937E-3
MEAN_MOTION_DOT = .106638E-2
MEAN_MOTION_DDOT = 0

CCSDS_OMM_VERS = 2.0
CREATION_DATE  = 
ORIGINATOR     = 

OBJECT_NAME    = RSP-03
OBJECT_ID      = 1998-067XL
CENTER_NAME    = EARTH
REF_FRAME      = TEME
TIME_SYSTEM    = UTC
MEAN_ELEMENT_THEORY = SGP/SGP4

EPOCH          = 2025-12-25T00:32:25.214784
MEAN_MOTION    = 15.71791128
ECCENTRICITY   = .0006004
INCLINATION    = 51.6261
RA_OF_ASC_NODE = 73.8000
ARG_OF_PERICENTER = 329.4925
MEAN_ANOMALY   = 30.5723

EPHEMERIS_TYPE = 0
CLASSIFICATION_TYPE = U
NORAD_CAT_ID   = 65732
ELEMENT_SET_NO = 999
REV_AT_EPOCH   = 1509
BSTAR          = .10967E-2
MEAN_MOTION_DOT = .147294E-2
MEAN_MOTION_DDOT = 0

CCSDS_OMM_VERS = 2.0
CREATION_DATE  = 
ORIGINATOR     = 

OBJECT_NAME    = GHS-01
OBJECT_ID      = 1998-067XM
CENTER_NAME    = EARTH
REF_FRAME      = TEME
TIME_SYSTEM    = UTC
MEAN_ELEMENT_THEORY = SGP/SGP4

EPOCH          = 2025-12-24T11:22:26.359680
MEAN_MOTION    = 15.80150374
ECCENTRICITY   = .00095342
INCLINATION    = 51.6288
RA_OF_ASC_NODE = 74.6328
ARG_OF_PERICENTER = 353.1442
MEAN_ANOMALY   = 6.9427

EPHEMERIS_TYPE = 0
CLASSIFICATION_TYPE = U
NORAD_CAT_ID   = 65733
ELEMENT_SET_NO = 999
REV_AT_EPOCH   = 1503
BSTAR          = .14499406E-2
MEAN_MOTION_DOT = .286733E-2
MEAN_MOTION_DDOT = 0

CCSDS_OMM_VERS = 2.0
CREATION_DATE  = 
ORIGINATOR     = 

OBJECT_NAME    = YOTSUBA-KULOVER
OBJECT_ID      = 1998-067XN
CENTER_NAME    = EARTH
REF_FRAME      = TEME
TIME_SYSTEM    = UTC
MEAN_ELEMENT_THEORY = SGP/SGP4

EPOCH          = 2025-12-24T15:01:23.824416
MEAN_MOTION    = 15.61031773
ECCENTRICITY   = .0002334
INCLINATION    = 51.6294
RA_OF_ASC_NODE = 80.1673
ARG_OF_PERICENTER = 354.5488
MEAN_ANOMALY   = 5.5480

EPHEMERIS_TYPE = 0
CLASSIFICATION_TYPE = U
NORAD_CAT_ID   = 65941
ELEMENT_SET_NO = 999
REV_AT_EPOCH   = 1171
BSTAR          = .84629408E-3
MEAN_MOTION_DOT = .72714E-3
MEAN_MOTION_DDOT = 0

CCSDS_OMM_VERS = 2.0
CREATION_DATE  = 
ORIGINATOR     = 

OBJECT_NAME    = BOTAN
OBJECT_ID      = 1998-067XP
CENTER_NAME    = EARTH
REF_FRAME      = TEME
TIME_SYSTEM    = UTC
MEAN_ELEMENT_THEORY = SGP/SGP4

EPOCH          = 2025-12-24T22:06:45.138528
MEAN_MOTION    = 15.65433076
ECCENTRICITY   = .00033628
INCLINATION    = 51.6276
RA_OF_ASC_NODE = 77.6384
ARG_OF_PERICENTER = 336.9031
MEAN_ANOMALY   = 23.1813

EPHEMERIS_TYPE = 0
CLASSIFICATION_TYPE = U
NORAD_CAT_ID   = 65942
ELEMENT_SET_NO = 999
REV_AT_EPOCH   = 1177
BSTAR          = .11375872E-2
MEAN_MOTION_DOT = .117098E-2
MEAN_MOTION_DDOT = 0

CCSDS_OMM_VERS = 2.0
CREATION_DATE  = 
ORIGINATOR     = 

OBJECT_NAME    = E-KAGAKU-1
OBJECT_ID      = 1998-067XQ
CENTER_NAME    = EARTH
REF_FRAME      = TEME
TIME_SYSTEM    = UTC
MEAN_ELEMENT_THEORY = SGP/SGP4

EPOCH          = 2025-12-24T11:57:09.904320
MEAN_MOTION    = 15.61022855
ECCENTRICITY   = .00014072
INCLINATION    = 51.6316
RA_OF_ASC_NODE = 80.8196
ARG_OF_PERICENTER = 317.6976
MEAN_ANOMALY   = 42.3909

EPHEMERIS_TYPE = 0
CLASSIFICATION_TYPE = U
NORAD_CAT_ID   = 65943
ELEMENT_SET_NO = 999
REV_AT_EPOCH   = 1169
BSTAR          = .86882896E-3
MEAN_MOTION_DOT = .74652E-3
MEAN_MOTION_DDOT = 0

CCSDS_OMM_VERS = 2.0
CREATION_DATE  = 
ORIGINATOR     = 

OBJECT_NAME    = HRC MONOBLOCK CAMERA
OBJECT_ID      = 1998-067XR
CENTER_NAME    = EARTH
REF_FRAME      = TEME
TIME_SYSTEM    = UTC
MEAN_ELEMENT_THEORY = SGP/SGP4

EPOCH          = 2025-12-24T22:18:27.885024
MEAN_MOTION    = 15.54975893
ECCENTRICITY   = .0002069
INCLINATION    = 51.6302
RA_OF_ASC_NODE = 80.6909
ARG_OF_PERICENTER = 244.0081
MEAN_ANOMALY   = 116.0697

EPHEMERIS_TYPE = 0
CLASSIFICATION_TYPE = U
NORAD_CAT_ID   = 66052
ELEMENT_SET_NO = 999
REV_AT_EPOCH   = 1073
BSTAR          = .52683E-3
MEAN_MOTION_DOT = .35651E-3
MEAN_MOTION_DDOT = 0

CCSDS_OMM_VERS = 2.0
CREATION_DATE  = 
ORIGINATOR     = 

OBJECT_NAME    = HTV-X1
OBJECT_ID      = 2025-241A
CENTER_NAME    = EARTH
REF_FRAME      = TEME
TIME_SYSTEM    = UTC
MEAN_ELEMENT_THEORY = SGP/SGP4

EPOCH          = 2025-12-24T17:30:08.449344
MEAN_MOTION    = 15.49788781
ECCENTRICITY   = .00031932
INCLINATION    = 51.6317
RA_OF_ASC_NODE = 83.1022
ARG_OF_PERICENTER = 296.2044
MEAN_ANOMALY   = 63.8616

EPHEMERIS_TYPE = 0
CLASSIFICATION_TYPE = U
NORAD_CAT_ID   = 66174
ELEMENT_SET_NO = 999
REV_AT_EPOCH   = 51
BSTAR          = .24880559E-3
MEAN_MOTION_DOT = .13665E-3
MEAN_MOTION_DDOT = 0

CCSDS_OMM_VERS = 2.0
CREATION_DATE  = 
ORIGINATOR     = 

OBJECT_NAME    = SZ-21 MODULE
OBJECT_ID      = 2025-246C
CENTER_NAME    = EARTH
REF_FRAME      = TEME
TIME_SYSTEM    = UTC
MEAN_ELEMENT_THEORY = SGP/SGP4

EPOCH          = 2025-12-24T13:16:51.562848
MEAN_MOTION    = 15.63097156
ECCENTRICITY   = .00047243
INCLINATION    = 41.4769
RA_OF_ASC_NODE = 303.9494
ARG_OF_PERICENTER = 323.7646
MEAN_ANOMALY   = 36.2873

EPHEMERIS_TYPE = 0
CLASSIFICATION_TYPE = U
NORAD_CAT_ID   = 66515
ELEMENT_SET_NO = 999
REV_AT_EPOCH   = 629
BSTAR          = .31177301E-3
MEAN_MOTION_DOT = .2901E-3
MEAN_MOTION_DDOT = 0

CCSDS_OMM_VERS = 2.0
CREATION_DATE  = 
ORIGINATOR     = 

OBJECT_NAME    = SHENZHOU-22
OBJECT_ID      = 2025-272A
CENTER_NAME    = EARTH
REF_FRAME      = TEME
TIME_SYSTEM    = UTC
MEAN_ELEMENT_THEORY = SGP/SGP4

EPOCH          = 2025-12-24T21:11:11.048064
MEAN_MOTION    = 15.59651715
ECCENTRICITY   = .00082343
INCLINATION    = 41.4683
RA_OF_ASC_NODE = 302.9604
ARG_OF_PERICENTER = 137.9360
MEAN_ANOMALY   = 222.2112

EPHEMERIS_TYPE = 0
CLASSIFICATION_TYPE = U
NORAD_CAT_ID   = 66645
ELEMENT_SET_NO = 999
REV_AT_EPOCH   = 26583
BSTAR          = .20600017E-3
MEAN_MOTION_DOT = .16629E-3
MEAN_MOTION_DDOT = 0

