CYGNUS NG-23            
1 65616U 25208A   25358.72926446  .00013665  00000+0  24881-3 0  9990
2 65616  51.6317  83.1022 0003193 296.2044  63.8616 15.49788781   220
DRAGONFLY               
1 65729U 98067XH  25358.92875736  .00206057  00000+0  12604-2 0  9993
2 65729  51.6251  73.1569 0008056 349.7528  10.3306 15.76149650 15080
1998-067XK              
1 65731U 98067XK  25358.46967625  .00106638  00000+0  93627-3 0  9993
2 65731  51.6288  77.6233 0004980 319.0572  41.0050 15.67978094 14988
RSP-03                  
1 65732U 98067XL  25359.02251406  .00147294  00000+0  10967-2 0  9998
2 65732  51.6261  73.8000 0006004 329.4925  30.5723 15.71791128 15095
GHS-01                  
1 65733U 98067XM  25358.47391620  .00286733  00000+0  14499-2 0  9996
2 65733  51.6288  74.6328 0009534 353.1442   6.9427 15.80150374 15030
YOTSUBA-KULOVER         
1 65941U 98067XN  25358.62597019  .00072714  00000+0  84629-3 0  9999
2 65941  51.6294  80.1673 0002334 354.5488   5.5480 15.61031773 11714
BOTAN                   
1 65942U 98067XP  25358.92135577  .00117098  00000+0  11376-2 0  9993
2 65942  51.6276  77.6384 0003362 336.9031  23.1813 15.65433076 11773
E-KAGAKU-1              
1 65943U 98067XQ  25358.49803130  .00074652  00000+0  86883-3 0  9997
2 65943  51.6316  80.8196 0001407 317.6976  42.3909 15.61022855 11693
HRC MONOBLOCK CAMERA    
1 66052U 98067XR  25358.92948941  .00035651  00000+0  52683-3 0  9994
2 66052  51.6302  80.6909 0002069 244.0081 116.0697 15.54975893 10733
HTV-X1                  
1 66174U 25241A   25358.72926446  .00013665  00000+0  24881-3 0  9997
2 66174  51.6317  83.1022 0003193 296.2044  63.8616 15.49788781   512
SZ-21 MODULE            
1 66515U 25246C   25358.55337457  .00029010  00000+0  31177-3 0  9997
2 66515  41.4769 303.9494 0004724 323.7646  36.2873 15.63097156  6295
SHENZHOU-22             
1 66645U 25272A   25358.88276676  .00016629  00000+0  20600-3 0  9992
2 66645  41.4683 302.9604 0008234 137.9360 222.2112 15.59651715265836
